{
  "type": "FeatureCollection",
  "metadata": {
    "title": "DC Vision Zero High-Injury Corridors",
    "description": "Top 8 HIN corridors by people killed or seriously injured, computed by joining Open Data DC crashes to the DDOT High Injury Network.",
    "source_title": "Crashes in DC x High Injury Network",
    "source_url": "https://opendata.dc.gov/datasets/DCGIS::crashes-in-dc",
    "hin_source_url": "https://opendata.dc.gov/datasets/high-injury-network",
    "captured_at": "2026-06-19T21:30:03Z",
    "method": "Each crash since 2022-01-01 is assigned to the nearest HIN corridor whose centerline passes within 25 m (point-to-segment, local equirectangular projection). KSI = people killed + seriously (major) injured. Injuries = all reported injured people (major + minor). Ward(s) are read from the joined crash records. Recommended interventions are a screening suggestion from the dominant crash mode, not a DDOT plan; effect sizes come from data/countermeasures.json (research-grade until verified).",
    "caveats": "Counts are crashes within 25 m of the DDOT High Injury Network centerline, 2022-present, from the open, police-reported Crashes in DC dataset; they may differ from DDOT's curated figures. Ungeocoded crashes and crashes off the HIN are excluded. A crash near two corridors is assigned to the nearest."
  },
  "features": [
    {
      "id": "hin_11040042_1",
      "type": "Feature",
      "properties": {
        "rank": 1,
        "corridor_name": "Georgia Ave NW",
        "location_scope": "7th St NW/Florida Ave NW To Chesapeake St NW",
        "ward": "Ward 1, Ward 4",
        "severity": {
          "injuries": 905,
          "major_injuries": 50,
          "fatalities": 4,
          "ksi": 54,
          "crashes": 2362,
          "period": "2022-present"
        },
        "mode_breakdown": {
          "pedestrian_ksi": 14,
          "cyclist_ksi": 8,
          "driver_ksi": 27,
          "passenger_ksi": 4
        },
        "recommended_interventions": [
          {
            "id": "leading_pedestrian_interval",
            "name": "Leading pedestrian intervals",
            "effect": "Seattle reported roughly -34% serious-injury/fatal pedestrian crashes and -48% pedestrian turning collisions at LPI locations."
          },
          {
            "id": "curb_extension",
            "name": "Curb extensions / bump-outs",
            "effect": "A standard component of low-cost Vision Zero packages (e.g. Hoboken's 60+ curb extensions) credited in its sustained zero-death record."
          },
          {
            "id": "daylighting",
            "name": "Daylighting (clear-sight corners)",
            "effect": "Core to Hoboken NJ's multi-year stretch with zero traffic deaths, deployed at 130+ intersections alongside high-visibility crosswalks and curb extensions."
          },
          {
            "id": "protected_bike_lane",
            "name": "Protected bike lanes",
            "effect": "physically separates people biking from traffic"
          }
        ],
        "equity_notes": "Serves Ward 1, Ward 4. HIN Tier 1. Equity context is ward-level; pair with DC Equity Emphasis Areas before prioritizing.",
        "confidence": "high",
        "confidence_note": "2362 crashes joined within 25 m; 54 KSI (4 killed). Counts from Open Data DC; corridor extent per DDOT HIN.",
        "priority": "URGENT",
        "data_source": "Crashes in DC x DDOT High Injury Network (Open Data DC)",
        "last_updated": "2026-06-19"
      },
      "geometry": {
        "type": "LineString",
        "coordinates": [
          [
            -77.0219,
            38.91627
          ],
          [
            -77.0219,
            38.91861
          ],
          [
            -77.02193,
            38.92008
          ],
          [
            -77.02215,
            38.92159
          ],
          [
            -77.02253,
            38.92426
          ],
          [
            -77.02275,
            38.92572
          ],
          [
            -77.02291,
            38.92686
          ],
          [
            -77.02304,
            38.92775
          ],
          [
            -77.02318,
            38.92871
          ],
          [
            -77.02345,
            38.93054
          ],
          [
            -77.02366,
            38.93204
          ],
          [
            -77.02388,
            38.93357
          ],
          [
            -77.02402,
            38.93451
          ],
          [
            -77.02421,
            38.93577
          ],
          [
            -77.0245,
            38.93762
          ],
          [
            -77.0246,
            38.93823
          ],
          [
            -77.02466,
            38.93856
          ],
          [
            -77.02499,
            38.93983
          ],
          [
            -77.02554,
            38.94198
          ],
          [
            -77.02599,
            38.94371
          ],
          [
            -77.02634,
            38.94507
          ],
          [
            -77.02681,
            38.94738
          ],
          [
            -77.02703,
            38.94892
          ],
          [
            -77.02714,
            38.94974
          ],
          [
            -77.02725,
            38.95055
          ],
          [
            -77.02739,
            38.95155
          ],
          [
            -77.02757,
            38.95291
          ],
          [
            -77.02783,
            38.95476
          ],
          [
            -77.02803,
            38.95622
          ],
          [
            -77.02821,
            38.9575
          ],
          [
            -77.02824,
            38.95829
          ],
          [
            -77.02821,
            38.95878
          ],
          [
            -77.02815,
            38.95957
          ],
          [
            -77.02802,
            38.96123
          ],
          [
            -77.02788,
            38.96279
          ],
          [
            -77.02775,
            38.96448
          ],
          [
            -77.02764,
            38.96572
          ],
          [
            -77.02748,
            38.96754
          ],
          [
            -77.02736,
            38.9689
          ],
          [
            -77.02721,
            38.97061
          ],
          [
            -77.02702,
            38.97238
          ],
          [
            -77.02682,
            38.97428
          ],
          [
            -77.02651,
            38.9772
          ],
          [
            -77.02643,
            38.97809
          ],
          [
            -77.02646,
            38.97931
          ],
          [
            -77.02653,
            38.98145
          ],
          [
            -77.02657,
            38.9833
          ],
          [
            -77.02662,
            38.98468
          ],
          [
            -77.02662,
            38.98481
          ]
        ]
      }
    },
    {
      "id": "hin_13009362_1",
      "type": "Feature",
      "properties": {
        "rank": 2,
        "corridor_name": "Alabama Ave SE",
        "location_scope": "5th St SE To Bowen Rd SE/Burns St SE/Stanley St SE",
        "ward": "Ward 7, Ward 8",
        "severity": {
          "injuries": 568,
          "major_injuries": 34,
          "fatalities": 2,
          "ksi": 36,
          "crashes": 1429,
          "period": "2022-present"
        },
        "mode_breakdown": {
          "pedestrian_ksi": 8,
          "cyclist_ksi": 0,
          "driver_ksi": 23,
          "passenger_ksi": 5
        },
        "recommended_interventions": [
          {
            "id": "leading_pedestrian_interval",
            "name": "Leading pedestrian intervals",
            "effect": "Seattle reported roughly -34% serious-injury/fatal pedestrian crashes and -48% pedestrian turning collisions at LPI locations."
          },
          {
            "id": "curb_extension",
            "name": "Curb extensions / bump-outs",
            "effect": "A standard component of low-cost Vision Zero packages (e.g. Hoboken's 60+ curb extensions) credited in its sustained zero-death record."
          },
          {
            "id": "daylighting",
            "name": "Daylighting (clear-sight corners)",
            "effect": "Core to Hoboken NJ's multi-year stretch with zero traffic deaths, deployed at 130+ intersections alongside high-visibility crosswalks and curb extensions."
          },
          {
            "id": "road_diet",
            "name": "Road diet / lane rechannelization",
            "effect": "FHWA cites ~19-47% total crash reductions for road diets; Seattle's Nickerson St saw roughly -93% aggressive (top-end) speeding."
          }
        ],
        "equity_notes": "Serves Ward 7, Ward 8. HIN Tier 1. Equity context is ward-level; pair with DC Equity Emphasis Areas before prioritizing.",
        "confidence": "high",
        "confidence_note": "1429 crashes joined within 25 m; 36 KSI (2 killed). Counts from Open Data DC; corridor extent per DDOT HIN.",
        "priority": "URGENT",
        "data_source": "Crashes in DC x DDOT High Injury Network (Open Data DC)",
        "last_updated": "2026-06-19"
      },
      "geometry": {
        "type": "LineString",
        "coordinates": [
          [
            -76.99951,
            38.84307
          ],
          [
            -76.99755,
            38.84316
          ],
          [
            -76.99533,
            38.84351
          ],
          [
            -76.99309,
            38.84389
          ],
          [
            -76.98991,
            38.84444
          ],
          [
            -76.98709,
            38.845
          ],
          [
            -76.98518,
            38.84551
          ],
          [
            -76.98268,
            38.84622
          ],
          [
            -76.98026,
            38.84693
          ],
          [
            -76.97957,
            38.84722
          ],
          [
            -76.97887,
            38.84767
          ],
          [
            -76.97814,
            38.8484
          ],
          [
            -76.97735,
            38.84946
          ],
          [
            -76.97638,
            38.85021
          ],
          [
            -76.97519,
            38.85072
          ],
          [
            -76.97349,
            38.85113
          ],
          [
            -76.97273,
            38.85121
          ],
          [
            -76.97232,
            38.85127
          ],
          [
            -76.97193,
            38.85139
          ],
          [
            -76.97146,
            38.8516
          ],
          [
            -76.97028,
            38.85239
          ],
          [
            -76.96998,
            38.85298
          ],
          [
            -76.96998,
            38.85513
          ],
          [
            -76.96862,
            38.85842
          ],
          [
            -76.96701,
            38.85988
          ],
          [
            -76.96422,
            38.86094
          ],
          [
            -76.96218,
            38.86166
          ],
          [
            -76.96039,
            38.86182
          ],
          [
            -76.95913,
            38.86192
          ],
          [
            -76.95865,
            38.86198
          ],
          [
            -76.95769,
            38.8622
          ],
          [
            -76.95731,
            38.86231
          ],
          [
            -76.95667,
            38.8627
          ],
          [
            -76.95593,
            38.86374
          ],
          [
            -76.95533,
            38.86416
          ],
          [
            -76.95348,
            38.86482
          ],
          [
            -76.95138,
            38.86557
          ],
          [
            -76.95047,
            38.8663
          ],
          [
            -76.94969,
            38.86719
          ],
          [
            -76.94794,
            38.86908
          ],
          [
            -76.94751,
            38.8694
          ],
          [
            -76.9468,
            38.86984
          ],
          [
            -76.94562,
            38.87032
          ],
          [
            -76.94376,
            38.87073
          ],
          [
            -76.94055,
            38.87138
          ],
          [
            -76.93982,
            38.87153
          ],
          [
            -76.93912,
            38.87179
          ],
          [
            -76.93823,
            38.87223
          ]
        ]
      }
    },
    {
      "id": "hin_11025152_2",
      "type": "Feature",
      "properties": {
        "rank": 3,
        "corridor_name": "Connecticut Ave NW",
        "location_scope": "17th St NW/K St NW Service Rd/K St NW To Chevy Chase Cir NW",
        "ward": "Ward 2, Ward 3",
        "severity": {
          "injuries": 350,
          "major_injuries": 31,
          "fatalities": 5,
          "ksi": 36,
          "crashes": 1195,
          "period": "2022-present"
        },
        "mode_breakdown": {
          "pedestrian_ksi": 15,
          "cyclist_ksi": 3,
          "driver_ksi": 12,
          "passenger_ksi": 5
        },
        "recommended_interventions": [
          {
            "id": "leading_pedestrian_interval",
            "name": "Leading pedestrian intervals",
            "effect": "Seattle reported roughly -34% serious-injury/fatal pedestrian crashes and -48% pedestrian turning collisions at LPI locations."
          },
          {
            "id": "curb_extension",
            "name": "Curb extensions / bump-outs",
            "effect": "A standard component of low-cost Vision Zero packages (e.g. Hoboken's 60+ curb extensions) credited in its sustained zero-death record."
          },
          {
            "id": "daylighting",
            "name": "Daylighting (clear-sight corners)",
            "effect": "Core to Hoboken NJ's multi-year stretch with zero traffic deaths, deployed at 130+ intersections alongside high-visibility crosswalks and curb extensions."
          },
          {
            "id": "road_diet",
            "name": "Road diet / lane rechannelization",
            "effect": "FHWA cites ~19-47% total crash reductions for road diets; Seattle's Nickerson St saw roughly -93% aggressive (top-end) speeding."
          }
        ],
        "equity_notes": "Serves Ward 2, Ward 3. HIN Tier 2. Equity context is ward-level; pair with DC Equity Emphasis Areas before prioritizing.",
        "confidence": "high",
        "confidence_note": "1195 crashes joined within 25 m; 36 KSI (5 killed). Counts from Open Data DC; corridor extent per DDOT HIN.",
        "priority": "HIGH",
        "data_source": "Crashes in DC x DDOT High Injury Network (Open Data DC)",
        "last_updated": "2026-06-19"
      },
      "geometry": {
        "type": "LineString",
        "coordinates": [
          [
            -77.03945,
            38.90253
          ],
          [
            -77.03946,
            38.90274
          ],
          [
            -77.0396,
            38.90303
          ],
          [
            -77.03993,
            38.9036
          ],
          [
            -77.04104,
            38.90552
          ],
          [
            -77.04159,
            38.90647
          ],
          [
            -77.04312,
            38.90909
          ],
          [
            -77.04521,
            38.91269
          ],
          [
            -77.04625,
            38.91477
          ],
          [
            -77.0465,
            38.91636
          ],
          [
            -77.04678,
            38.91684
          ],
          [
            -77.04757,
            38.9184
          ],
          [
            -77.04774,
            38.91855
          ],
          [
            -77.04785,
            38.9186
          ],
          [
            -77.04831,
            38.91872
          ],
          [
            -77.04871,
            38.91885
          ],
          [
            -77.04889,
            38.91902
          ],
          [
            -77.04909,
            38.91938
          ],
          [
            -77.05015,
            38.92118
          ],
          [
            -77.05143,
            38.92339
          ],
          [
            -77.05234,
            38.92495
          ],
          [
            -77.05316,
            38.92637
          ],
          [
            -77.05411,
            38.92801
          ],
          [
            -77.05482,
            38.92923
          ],
          [
            -77.05576,
            38.93083
          ],
          [
            -77.05677,
            38.93258
          ],
          [
            -77.05759,
            38.93399
          ],
          [
            -77.05851,
            38.93557
          ],
          [
            -77.0594,
            38.9371
          ],
          [
            -77.06031,
            38.93867
          ],
          [
            -77.06123,
            38.94024
          ],
          [
            -77.06174,
            38.94112
          ],
          [
            -77.06299,
            38.94328
          ],
          [
            -77.06399,
            38.94499
          ],
          [
            -77.06467,
            38.94617
          ],
          [
            -77.06562,
            38.9478
          ],
          [
            -77.06626,
            38.94891
          ],
          [
            -77.06765,
            38.95129
          ],
          [
            -77.06843,
            38.95264
          ],
          [
            -77.06928,
            38.95409
          ],
          [
            -77.06974,
            38.95489
          ],
          [
            -77.07055,
            38.95627
          ],
          [
            -77.07146,
            38.95784
          ],
          [
            -77.07224,
            38.95918
          ],
          [
            -77.07291,
            38.96032
          ],
          [
            -77.07371,
            38.96171
          ],
          [
            -77.07469,
            38.96339
          ],
          [
            -77.07576,
            38.96522
          ],
          [
            -77.07632,
            38.96619
          ],
          [
            -77.07694,
            38.96726
          ]
        ]
      }
    },
    {
      "id": "hin_12064672_1",
      "type": "Feature",
      "properties": {
        "rank": 4,
        "corridor_name": "New York Ave NE",
        "location_scope": "New York Ave NW/N St NE To Eastern Ave NE",
        "ward": "Ward 5",
        "severity": {
          "injuries": 536,
          "major_injuries": 27,
          "fatalities": 2,
          "ksi": 29,
          "crashes": 1614,
          "period": "2022-present"
        },
        "mode_breakdown": {
          "pedestrian_ksi": 6,
          "cyclist_ksi": 1,
          "driver_ksi": 13,
          "passenger_ksi": 8
        },
        "recommended_interventions": [
          {
            "id": "leading_pedestrian_interval",
            "name": "Leading pedestrian intervals",
            "effect": "Seattle reported roughly -34% serious-injury/fatal pedestrian crashes and -48% pedestrian turning collisions at LPI locations."
          },
          {
            "id": "curb_extension",
            "name": "Curb extensions / bump-outs",
            "effect": "A standard component of low-cost Vision Zero packages (e.g. Hoboken's 60+ curb extensions) credited in its sustained zero-death record."
          },
          {
            "id": "daylighting",
            "name": "Daylighting (clear-sight corners)",
            "effect": "Core to Hoboken NJ's multi-year stretch with zero traffic deaths, deployed at 130+ intersections alongside high-visibility crosswalks and curb extensions."
          },
          {
            "id": "road_diet",
            "name": "Road diet / lane rechannelization",
            "effect": "FHWA cites ~19-47% total crash reductions for road diets; Seattle's Nickerson St saw roughly -93% aggressive (top-end) speeding."
          }
        ],
        "equity_notes": "Serves Ward 5. HIN Tier 1. Equity context is ward-level; pair with DC Equity Emphasis Areas before prioritizing.",
        "confidence": "high",
        "confidence_note": "1614 crashes joined within 25 m; 29 KSI (2 killed). Counts from Open Data DC; corridor extent per DDOT HIN.",
        "priority": "URGENT",
        "data_source": "Crashes in DC x DDOT High Injury Network (Open Data DC)",
        "last_updated": "2026-06-19"
      },
      "geometry": {
        "type": "LineString",
        "coordinates": [
          [
            -77.00906,
            38.90736
          ],
          [
            -77.00719,
            38.90801
          ],
          [
            -77.00477,
            38.90885
          ],
          [
            -76.99838,
            38.91104
          ],
          [
            -76.99728,
            38.91142
          ],
          [
            -76.99371,
            38.91267
          ],
          [
            -76.99264,
            38.91305
          ],
          [
            -76.99175,
            38.91336
          ],
          [
            -76.99074,
            38.91372
          ],
          [
            -76.98912,
            38.91426
          ],
          [
            -76.98569,
            38.91545
          ],
          [
            -76.98393,
            38.91606
          ],
          [
            -76.9813,
            38.91698
          ],
          [
            -76.9802,
            38.91719
          ],
          [
            -76.97934,
            38.91721
          ],
          [
            -76.97753,
            38.91725
          ],
          [
            -76.9761,
            38.91728
          ],
          [
            -76.97472,
            38.9173
          ],
          [
            -76.97369,
            38.91732
          ],
          [
            -76.97252,
            38.91734
          ],
          [
            -76.97145,
            38.91739
          ],
          [
            -76.96954,
            38.91737
          ],
          [
            -76.9664,
            38.91724
          ],
          [
            -76.96472,
            38.91711
          ],
          [
            -76.96413,
            38.91707
          ],
          [
            -76.96156,
            38.91695
          ],
          [
            -76.95918,
            38.91685
          ],
          [
            -76.95856,
            38.91685
          ],
          [
            -76.95815,
            38.91689
          ],
          [
            -76.95772,
            38.91699
          ],
          [
            -76.95678,
            38.91736
          ],
          [
            -76.95527,
            38.9181
          ],
          [
            -76.9544,
            38.91852
          ],
          [
            -76.95355,
            38.91891
          ],
          [
            -76.9531,
            38.91906
          ],
          [
            -76.95261,
            38.91919
          ],
          [
            -76.95211,
            38.91923
          ],
          [
            -76.95161,
            38.91923
          ],
          [
            -76.95099,
            38.91921
          ],
          [
            -76.94886,
            38.91888
          ],
          [
            -76.94695,
            38.91857
          ],
          [
            -76.94411,
            38.91812
          ],
          [
            -76.94129,
            38.91813
          ]
        ]
      }
    },
    {
      "id": "hin_11001402_2",
      "type": "Feature",
      "properties": {
        "rank": 5,
        "corridor_name": "14th St NW",
        "location_scope": "Thomas Cir NW To Iowa Ave NW",
        "ward": "Ward 1, Ward 2, Ward 4",
        "severity": {
          "injuries": 402,
          "major_injuries": 28,
          "fatalities": 1,
          "ksi": 29,
          "crashes": 1280,
          "period": "2022-present"
        },
        "mode_breakdown": {
          "pedestrian_ksi": 13,
          "cyclist_ksi": 9,
          "driver_ksi": 7,
          "passenger_ksi": 0
        },
        "recommended_interventions": [
          {
            "id": "leading_pedestrian_interval",
            "name": "Leading pedestrian intervals",
            "effect": "Seattle reported roughly -34% serious-injury/fatal pedestrian crashes and -48% pedestrian turning collisions at LPI locations."
          },
          {
            "id": "curb_extension",
            "name": "Curb extensions / bump-outs",
            "effect": "A standard component of low-cost Vision Zero packages (e.g. Hoboken's 60+ curb extensions) credited in its sustained zero-death record."
          },
          {
            "id": "daylighting",
            "name": "Daylighting (clear-sight corners)",
            "effect": "Core to Hoboken NJ's multi-year stretch with zero traffic deaths, deployed at 130+ intersections alongside high-visibility crosswalks and curb extensions."
          },
          {
            "id": "protected_bike_lane",
            "name": "Protected bike lanes",
            "effect": "physically separates people biking from traffic"
          }
        ],
        "equity_notes": "Serves Ward 1, Ward 2, Ward 4. HIN Tier 2. Equity context is ward-level; pair with DC Equity Emphasis Areas before prioritizing.",
        "confidence": "high",
        "confidence_note": "1280 crashes joined within 25 m; 29 KSI (1 killed). Counts from Open Data DC; corridor extent per DDOT HIN.",
        "priority": "HIGH",
        "data_source": "Crashes in DC x DDOT High Injury Network (Open Data DC)",
        "last_updated": "2026-06-19"
      },
      "geometry": {
        "type": "LineString",
        "coordinates": [
          [
            -77.03196,
            38.906
          ],
          [
            -77.03195,
            38.90897
          ],
          [
            -77.03195,
            38.90975
          ],
          [
            -77.03196,
            38.91072
          ],
          [
            -77.03195,
            38.91179
          ],
          [
            -77.03195,
            38.91271
          ],
          [
            -77.03195,
            38.91401
          ],
          [
            -77.03195,
            38.91488
          ],
          [
            -77.03196,
            38.91567
          ],
          [
            -77.03195,
            38.91701
          ],
          [
            -77.03195,
            38.91911
          ],
          [
            -77.03195,
            38.91998
          ],
          [
            -77.03187,
            38.92033
          ],
          [
            -77.03184,
            38.92069
          ],
          [
            -77.03192,
            38.92159
          ],
          [
            -77.03201,
            38.92244
          ],
          [
            -77.03207,
            38.92302
          ],
          [
            -77.03215,
            38.92381
          ],
          [
            -77.03224,
            38.92476
          ],
          [
            -77.03233,
            38.92559
          ],
          [
            -77.03239,
            38.92619
          ],
          [
            -77.03249,
            38.92729
          ],
          [
            -77.03256,
            38.92784
          ],
          [
            -77.03262,
            38.92848
          ],
          [
            -77.03266,
            38.92895
          ],
          [
            -77.03272,
            38.92946
          ],
          [
            -77.03275,
            38.93029
          ],
          [
            -77.03272,
            38.93116
          ],
          [
            -77.03274,
            38.93183
          ],
          [
            -77.03273,
            38.93309
          ],
          [
            -77.03273,
            38.93359
          ],
          [
            -77.03273,
            38.93421
          ],
          [
            -77.03273,
            38.93494
          ],
          [
            -77.03273,
            38.93554
          ],
          [
            -77.03273,
            38.93635
          ],
          [
            -77.03273,
            38.93753
          ],
          [
            -77.03273,
            38.93843
          ],
          [
            -77.03273,
            38.93966
          ],
          [
            -77.03273,
            38.94081
          ],
          [
            -77.03273,
            38.94198
          ],
          [
            -77.03273,
            38.94328
          ],
          [
            -77.03273,
            38.9441
          ],
          [
            -77.03273,
            38.94514
          ],
          [
            -77.03273,
            38.94648
          ],
          [
            -77.03273,
            38.94817
          ],
          [
            -77.03272,
            38.94909
          ],
          [
            -77.03287,
            38.94936
          ]
        ]
      }
    },
    {
      "id": "hin_13069812_1",
      "type": "Feature",
      "properties": {
        "rank": 6,
        "corridor_name": "Pennsylvania Ave SE",
        "location_scope": "Sycamore Dr SE To Unnamed Access Road",
        "ward": "Ward 6, Ward 7, Ward 8",
        "severity": {
          "injuries": 447,
          "major_injuries": 24,
          "fatalities": 2,
          "ksi": 26,
          "crashes": 1116,
          "period": "2022-present"
        },
        "mode_breakdown": {
          "pedestrian_ksi": 4,
          "cyclist_ksi": 0,
          "driver_ksi": 18,
          "passenger_ksi": 4
        },
        "recommended_interventions": [
          {
            "id": "leading_pedestrian_interval",
            "name": "Leading pedestrian intervals",
            "effect": "Seattle reported roughly -34% serious-injury/fatal pedestrian crashes and -48% pedestrian turning collisions at LPI locations."
          },
          {
            "id": "curb_extension",
            "name": "Curb extensions / bump-outs",
            "effect": "A standard component of low-cost Vision Zero packages (e.g. Hoboken's 60+ curb extensions) credited in its sustained zero-death record."
          },
          {
            "id": "daylighting",
            "name": "Daylighting (clear-sight corners)",
            "effect": "Core to Hoboken NJ's multi-year stretch with zero traffic deaths, deployed at 130+ intersections alongside high-visibility crosswalks and curb extensions."
          },
          {
            "id": "road_diet",
            "name": "Road diet / lane rechannelization",
            "effect": "FHWA cites ~19-47% total crash reductions for road diets; Seattle's Nickerson St saw roughly -93% aggressive (top-end) speeding."
          }
        ],
        "equity_notes": "Serves Ward 6, Ward 7, Ward 8. HIN Tier 1. Equity context is ward-level; pair with DC Equity Emphasis Areas before prioritizing.",
        "confidence": "high",
        "confidence_note": "1116 crashes joined within 25 m; 26 KSI (2 killed). Counts from Open Data DC; corridor extent per DDOT HIN.",
        "priority": "URGENT",
        "data_source": "Crashes in DC x DDOT High Injury Network (Open Data DC)",
        "last_updated": "2026-06-19"
      },
      "geometry": {
        "type": "LineString",
        "coordinates": [
          [
            -76.98508,
            38.88015
          ],
          [
            -76.98282,
            38.87924
          ],
          [
            -76.98148,
            38.87867
          ],
          [
            -76.98042,
            38.87811
          ],
          [
            -76.97629,
            38.87601
          ],
          [
            -76.97562,
            38.87568
          ],
          [
            -76.97475,
            38.87529
          ],
          [
            -76.97412,
            38.87503
          ],
          [
            -76.97341,
            38.87474
          ],
          [
            -76.973,
            38.87456
          ],
          [
            -76.97283,
            38.87448
          ],
          [
            -76.9727,
            38.87442
          ],
          [
            -76.97212,
            38.87415
          ],
          [
            -76.97146,
            38.87385
          ],
          [
            -76.97125,
            38.87375
          ],
          [
            -76.97065,
            38.87347
          ],
          [
            -76.96959,
            38.87305
          ],
          [
            -76.96938,
            38.87296
          ],
          [
            -76.96924,
            38.8729
          ],
          [
            -76.96907,
            38.87283
          ],
          [
            -76.96847,
            38.8726
          ],
          [
            -76.96768,
            38.87228
          ],
          [
            -76.96682,
            38.87193
          ],
          [
            -76.96655,
            38.87182
          ],
          [
            -76.96543,
            38.87136
          ],
          [
            -76.96467,
            38.87105
          ],
          [
            -76.96327,
            38.87048
          ],
          [
            -76.962,
            38.86996
          ],
          [
            -76.96021,
            38.86923
          ],
          [
            -76.95869,
            38.86861
          ],
          [
            -76.95842,
            38.8685
          ],
          [
            -76.95722,
            38.86801
          ],
          [
            -76.95633,
            38.86764
          ],
          [
            -76.95575,
            38.86741
          ],
          [
            -76.95405,
            38.86671
          ],
          [
            -76.95324,
            38.86638
          ],
          [
            -76.95288,
            38.86624
          ],
          [
            -76.95222,
            38.86597
          ],
          [
            -76.95147,
            38.86566
          ],
          [
            -76.95025,
            38.86517
          ],
          [
            -76.94981,
            38.86498
          ],
          [
            -76.94896,
            38.86464
          ],
          [
            -76.94754,
            38.86405
          ],
          [
            -76.94667,
            38.86371
          ]
        ]
      }
    },
    {
      "id": "hin_12015342_1",
      "type": "Feature",
      "properties": {
        "rank": 7,
        "corridor_name": "Benning Rd NE",
        "location_scope": "15th St NE/Bladensburg Rd NE/H St NE/Maryland Ave NE To Benning Rd SE/East Capitol St Bn",
        "ward": "Ward 5, Ward 6, Ward 7",
        "severity": {
          "injuries": 453,
          "major_injuries": 20,
          "fatalities": 5,
          "ksi": 25,
          "crashes": 1193,
          "period": "2022-present"
        },
        "mode_breakdown": {
          "pedestrian_ksi": 9,
          "cyclist_ksi": 0,
          "driver_ksi": 13,
          "passenger_ksi": 2
        },
        "recommended_interventions": [
          {
            "id": "leading_pedestrian_interval",
            "name": "Leading pedestrian intervals",
            "effect": "Seattle reported roughly -34% serious-injury/fatal pedestrian crashes and -48% pedestrian turning collisions at LPI locations."
          },
          {
            "id": "curb_extension",
            "name": "Curb extensions / bump-outs",
            "effect": "A standard component of low-cost Vision Zero packages (e.g. Hoboken's 60+ curb extensions) credited in its sustained zero-death record."
          },
          {
            "id": "daylighting",
            "name": "Daylighting (clear-sight corners)",
            "effect": "Core to Hoboken NJ's multi-year stretch with zero traffic deaths, deployed at 130+ intersections alongside high-visibility crosswalks and curb extensions."
          },
          {
            "id": "road_diet",
            "name": "Road diet / lane rechannelization",
            "effect": "FHWA cites ~19-47% total crash reductions for road diets; Seattle's Nickerson St saw roughly -93% aggressive (top-end) speeding."
          }
        ],
        "equity_notes": "Serves Ward 5, Ward 6, Ward 7. HIN Tier 1. Equity context is ward-level; pair with DC Equity Emphasis Areas before prioritizing.",
        "confidence": "high",
        "confidence_note": "1193 crashes joined within 25 m; 25 KSI (5 killed). Counts from Open Data DC; corridor extent per DDOT HIN.",
        "priority": "URGENT",
        "data_source": "Crashes in DC x DDOT High Injury Network (Open Data DC)",
        "last_updated": "2026-06-19"
      },
      "geometry": {
        "type": "LineString",
        "coordinates": [
          [
            -76.98344,
            38.90014
          ],
          [
            -76.98303,
            38.90007
          ],
          [
            -76.98158,
            38.89983
          ],
          [
            -76.98023,
            38.8996
          ],
          [
            -76.97912,
            38.89938
          ],
          [
            -76.97743,
            38.89908
          ],
          [
            -76.97646,
            38.89891
          ],
          [
            -76.97579,
            38.8988
          ],
          [
            -76.97486,
            38.89863
          ],
          [
            -76.97393,
            38.89847
          ],
          [
            -76.97266,
            38.89824
          ],
          [
            -76.97135,
            38.89801
          ],
          [
            -76.97082,
            38.89792
          ],
          [
            -76.9702,
            38.89781
          ],
          [
            -76.96969,
            38.89773
          ],
          [
            -76.96901,
            38.89765
          ],
          [
            -76.96784,
            38.89755
          ],
          [
            -76.96521,
            38.89733
          ],
          [
            -76.96115,
            38.89701
          ],
          [
            -76.95999,
            38.8969
          ],
          [
            -76.95766,
            38.89656
          ],
          [
            -76.9562,
            38.89632
          ],
          [
            -76.95195,
            38.89564
          ],
          [
            -76.94936,
            38.89523
          ],
          [
            -76.94803,
            38.89462
          ],
          [
            -76.94732,
            38.89432
          ],
          [
            -76.94651,
            38.89397
          ],
          [
            -76.94587,
            38.89374
          ],
          [
            -76.94544,
            38.89363
          ],
          [
            -76.94473,
            38.89348
          ],
          [
            -76.94358,
            38.89324
          ],
          [
            -76.94324,
            38.89315
          ],
          [
            -76.94282,
            38.89302
          ],
          [
            -76.94242,
            38.89287
          ],
          [
            -76.94098,
            38.89228
          ],
          [
            -76.94025,
            38.89198
          ],
          [
            -76.93966,
            38.89175
          ],
          [
            -76.93934,
            38.8916
          ],
          [
            -76.93912,
            38.89149
          ],
          [
            -76.93884,
            38.89132
          ],
          [
            -76.93854,
            38.8911
          ],
          [
            -76.93828,
            38.89086
          ],
          [
            -76.93804,
            38.89061
          ],
          [
            -76.9379,
            38.89042
          ],
          [
            -76.9376,
            38.8899
          ],
          [
            -76.93755,
            38.88978
          ]
        ]
      }
    },
    {
      "id": "hin_13061162_1",
      "type": "Feature",
      "properties": {
        "rank": 8,
        "corridor_name": "Minnesota Ave SE",
        "location_scope": "Good Hope Rd SE To Martin Luther King Jr Ave SE",
        "ward": "Ward 7, Ward 8",
        "severity": {
          "injuries": 354,
          "major_injuries": 24,
          "fatalities": 1,
          "ksi": 25,
          "crashes": 819,
          "period": "2022-present"
        },
        "mode_breakdown": {
          "pedestrian_ksi": 5,
          "cyclist_ksi": 1,
          "driver_ksi": 15,
          "passenger_ksi": 2
        },
        "recommended_interventions": [
          {
            "id": "leading_pedestrian_interval",
            "name": "Leading pedestrian intervals",
            "effect": "Seattle reported roughly -34% serious-injury/fatal pedestrian crashes and -48% pedestrian turning collisions at LPI locations."
          },
          {
            "id": "curb_extension",
            "name": "Curb extensions / bump-outs",
            "effect": "A standard component of low-cost Vision Zero packages (e.g. Hoboken's 60+ curb extensions) credited in its sustained zero-death record."
          },
          {
            "id": "daylighting",
            "name": "Daylighting (clear-sight corners)",
            "effect": "Core to Hoboken NJ's multi-year stretch with zero traffic deaths, deployed at 130+ intersections alongside high-visibility crosswalks and curb extensions."
          },
          {
            "id": "road_diet",
            "name": "Road diet / lane rechannelization",
            "effect": "FHWA cites ~19-47% total crash reductions for road diets; Seattle's Nickerson St saw roughly -93% aggressive (top-end) speeding."
          }
        ],
        "equity_notes": "Serves Ward 7, Ward 8. HIN Tier 1. Equity context is ward-level; pair with DC Equity Emphasis Areas before prioritizing.",
        "confidence": "high",
        "confidence_note": "819 crashes joined within 25 m; 25 KSI (1 killed). Counts from Open Data DC; corridor extent per DDOT HIN.",
        "priority": "URGENT",
        "data_source": "Crashes in DC x DDOT High Injury Network (Open Data DC)",
        "last_updated": "2026-06-19"
      },
      "geometry": {
        "type": "LineString",
        "coordinates": [
          [
            -76.98436,
            38.86664
          ],
          [
            -76.98432,
            38.8667
          ],
          [
            -76.98425,
            38.86674
          ],
          [
            -76.98306,
            38.86733
          ],
          [
            -76.98232,
            38.8677
          ],
          [
            -76.98125,
            38.86824
          ],
          [
            -76.98042,
            38.86864
          ],
          [
            -76.97892,
            38.86939
          ],
          [
            -76.97745,
            38.87012
          ],
          [
            -76.97643,
            38.87063
          ],
          [
            -76.97591,
            38.87089
          ],
          [
            -76.97512,
            38.87128
          ],
          [
            -76.97371,
            38.87199
          ],
          [
            -76.97269,
            38.8725
          ],
          [
            -76.97175,
            38.87292
          ],
          [
            -76.97074,
            38.87342
          ],
          [
            -76.96997,
            38.87382
          ],
          [
            -76.96942,
            38.87412
          ],
          [
            -76.96892,
            38.87438
          ],
          [
            -76.96808,
            38.8748
          ],
          [
            -76.96743,
            38.87512
          ],
          [
            -76.96665,
            38.87551
          ],
          [
            -76.96565,
            38.87602
          ],
          [
            -76.96481,
            38.87643
          ],
          [
            -76.96341,
            38.87712
          ],
          [
            -76.9631,
            38.87728
          ],
          [
            -76.96284,
            38.87741
          ],
          [
            -76.96212,
            38.87777
          ],
          [
            -76.96192,
            38.87787
          ],
          [
            -76.96163,
            38.87803
          ],
          [
            -76.96139,
            38.87823
          ],
          [
            -76.96122,
            38.87844
          ],
          [
            -76.96114,
            38.87855
          ],
          [
            -76.96083,
            38.87899
          ],
          [
            -76.95993,
            38.88024
          ],
          [
            -76.95889,
            38.88169
          ],
          [
            -76.95852,
            38.88221
          ],
          [
            -76.958,
            38.88293
          ],
          [
            -76.9576,
            38.88349
          ],
          [
            -76.95741,
            38.88376
          ],
          [
            -76.95702,
            38.8843
          ],
          [
            -76.9562,
            38.88545
          ],
          [
            -76.95549,
            38.88644
          ],
          [
            -76.95482,
            38.88739
          ],
          [
            -76.95424,
            38.88819
          ],
          [
            -76.95377,
            38.88885
          ],
          [
            -76.95335,
            38.88943
          ],
          [
            -76.95309,
            38.88977
          ]
        ]
      }
    }
  ]
}
